1 45738U 20038J   23362.05389867  .00005206  00000-0  36808-3 0  9993
2 45738  53.0521 239.7898 0001413 106.9846 253.1298 15.06405219195215
1 45738U 20038J   23362.05389867  .00005206  00000-0  36808-3 0  9993
2 45738  53.0521 239.7898 0001413 106.9846 253.1298 15.06405219196339
1 45738U 20038J   23362.85006668 -.00000487  00000-0 -13826-4 0  9990
2 45738  53.0515 236.2151 0001512 115.3690 244.7456 15.06390630195338
1 45738U 20038J   23363.04910875  .00000172  00000-0  30461-4 0  9999
2 45738  53.0515 235.3212 0001487 113.2379 246.8766 15.06391108195369
1 45738U 20038J   23363.04910875  .00000172  00000-0  30461-4 0  9999
2 45738  53.0515 235.3212 0001487 113.2379 246.8766 15.06391108196483
1 45738U 20038J   23363.91161440  .00001972  00000-0  15125-3 0  9999
2 45738  53.0525 231.4488 0001734 127.8688 232.2458 15.06401224195493
1 45738U 20038J   23363.91161440  .00001972  00000-0  15125-3 0  9999
2 45738  53.0525 231.4488 0001734 127.8688 232.2458 15.06401224196618
1 45738U 20038J   23364.64143428  .00002568  00000-0  19122-3 0  9999
2 45738  53.0520 228.1768 0001471  79.2758 280.8397 15.06400119195604
1 45738U 20038J   23364.84047450  .00002340  00000-0  17591-3 0  9995
2 45738  53.0525 227.2818 0001418  89.3118 270.8034 15.06399553195637
1 45738U 20038J   23364.84047450  .00002340  00000-0  17591-3 0  9995
2 45738  53.0525 227.2818 0001418  89.3118 270.8034 15.06399553196751
